NORAD_CAT_ID,OBJECT_NAME,OBJECT_TYPE,EPOCH,MEAN_MOTION,ECCENTRICITY,INCLINATION,RA_OF_ASC_NODE,ARG_OF_PERICENTER,MEAN_ANOMALY,BSTAR,MEAN_MOTION_DOT,MEAN_MOTION_DDOT,TLE_LINE0,TLE_LINE1,TLE_LINE2,SEMIMAJOR_AXIS,PERIOD,APOGEE,PERIGEE,DECAYED
53139.0,STARLINK-4185,PAYLOAD,2023-01-03 04:57:23,15.0884096,0.0001247,53.2157,348.2271,25.2119,334.8934,3.5047e-05,2.7000000000000004e-06,0.0,0 STARLINK-4185,1 53139U 22083H   23003.20651752  .00000270  00000-0  35047-4 0  9994,2 53139  53.2157 348.2271 0001247  25.2119 334.8934 15.08840960 26505,6917.877,95.437,540.605,538.88,0.0
53139.0,STARLINK-4185,PAYLOAD,2023-01-03 11:18:55,15.08841306,0.0001664,53.2156,347.0377,42.3985,317.7136,0.00018837,2.711e-05,0.0,0 STARLINK-4185,1 53139U 22083H   23003.47147635  .00002711  00000-0  18837-3 0  9992,2 53139  53.2156 347.0377 0001664  42.3985 317.7136 15.08841306 25915,6917.876,95.437,540.893,538.59,0.0
53139.0,STARLINK-4185,PAYLOAD,2023-01-04 11:09:42,15.08851922,0.0001904,53.2165,342.5755,50.0628,310.0531,0.00087165,0.00013616,0.0,0 STARLINK-4185,1 53139U 22083H   23004.46507992  .00013616  00000-0  87165-3 0  9994,2 53139  53.2165 342.5755 0001904  50.0628 310.0531 15.08851922 26069,6917.844,95.437,541.026,538.3919999999998,0.0
53139.0,STARLINK-4185,PAYLOAD,2023-01-04 15:55:52,15.08854603,0.0001916999999999,53.2171,341.68300000000005,51.2702,308.8462,0.00085098,0.00013287,0.0,0 STARLINK-4185,1 53139U 22083H   23004.66379886  .00013287  00000-0  85098-3 0  9992,2 53139  53.2171 341.6830 0001917  51.2702 308.8462 15.08854603 26720,6917.8359999999975,95.437,541.0269999999998,538.375,0.0
53139.0,STARLINK-4185,PAYLOAD,2023-01-05 07:49:42,15.08869266,0.0002026999999999,53.2163,338.7117,37.025,323.0882,0.00056291,8.689e-05,0.0,0 STARLINK-4185,1 53139U 22083H   23005.32618686  .00008689  00000-0  56291-3 0  9993,2 53139  53.2163 338.7117 0002027  37.0250 323.0882 15.08869266 26196,6917.791,95.436,541.058,538.254,0.0
53139.0,STARLINK-4185,PAYLOAD,2023-01-06 07:40:28,15.08848402,9.29e-05,53.2177,334.2504,324.0321,36.0608,9.6288e-05,1.245e-05,0.0,0 STARLINK-4185,1 53139U 22083H   23006.31977844  .00001245  00000-0  96288-4 0  9999,2 53139  53.2177 334.2504 0000929 324.0321  36.0608 15.08848402 26971,6917.855,95.437,540.362,539.077,0.0
53139.0,STARLINK-4185,PAYLOAD,2023-01-06 21:58:58,15.08829015,0.0001978,53.2168,331.5749,29.6813,330.4291,-2.9243e-05,-7.53e-06,0.0,0 STARLINK-4185,1 53139U 22083H   23006.91595309 -.00000753  00000-0 -29243-4 0  9999,2 53139  53.2168 331.5749 0001978  29.6813 330.4291 15.08829015 26430,6917.914000000002,95.438,541.1469999999998,538.411,0.0
53139.0,STARLINK-4185,PAYLOAD,2023-01-07 05:55:54,15.088401199999998,0.000221,53.2173,330.0891,44.7736,315.3435,0.00034408,5.192e-05,0.0,0 STARLINK-4185,1 53139U 22083H   23007.24715359  .00005192  00000-0  34408-3 0  9993,2 53139  53.2173 330.0891 0002210  44.7736 315.3435 15.08840120 26487,6917.88,95.438,541.274,538.216,0.0
53139.0,STARLINK-4185,PAYLOAD,2023-01-07 07:31:17,15.08842882,0.0002176,53.2173,329.7911,48.4008,311.7171,0.00045012,6.883e-05,0.0,0 STARLINK-4185,1 53139U 22083H   23007.31339317  .00006883  00000-0  45012-3 0  9998,2 53139  53.2173 329.7911 0002176  48.4008 311.7171 15.08842882 27125,6917.871999999999,95.437,541.242,538.231,0.0
53139.0,STARLINK-4185,PAYLOAD,2023-01-07 21:49:46,15.08826047,0.0002832,53.2162,327.1141,56.2007,303.9255,0.00016335,2.311e-05,0.0,0 STARLINK-4185,1 53139U 22083H   23007.90956624  .00002311  00000-0  16335-3 0  9997,2 53139  53.2162 327.1141 0002832  56.2007 303.9255 15.08826047 27216,6917.923000000002,95.438,541.747,537.8290000000002,0.0
53139.0,STARLINK-4185,PAYLOAD,2023-01-08 04:11:19,15.08817564,0.0001835,53.2167,325.9258,42.9883,317.1252,7.4091e-06,-1.7e-06,0.0,0 STARLINK-4185,1 53139U 22083H   23008.17453226 -.00000170  00000-0  74091-5 0  9994,2 53139  53.2167 325.9258 0001835  42.9883 317.1252 15.08817564 27254,6917.949000000001,95.439,541.0830000000002,538.545,0.0
53139.0,STARLINK-4185,PAYLOAD,2023-01-08 13:43:38,15.0883062,0.0001730999999999,53.2166,324.1406,51.2507,308.8640000000001,0.00044187,6.75e-05,0.0,0 STARLINK-4185,1 53139U 22083H   23008.57197356  .00006750  00000-0  44187-3 0  9997,2 53139  53.2166 324.1406 0001731  51.2507 308.8640 15.08830620 26682,6917.9090000000015,95.438,540.972,538.577,0.0
53139.0,STARLINK-4185,PAYLOAD,2023-01-09 05:37:29,15.08859964,0.0001754999999999,53.2166,321.1672,46.2955,313.8183,0.0011445,0.00017984,0.0,0 STARLINK-4185,1 53139U 22083H   23009.23437083  .00017984  00000-0  11445-2 0  9996,2 53139  53.2166 321.1672 0001755  46.2955 313.8183 15.08859964 27413,6917.819,95.436,540.898,538.47,0.0
53139.0,STARLINK-4185,PAYLOAD,2023-01-09 13:34:25,15.08857699,0.0002047,53.2177,319.6803,47.8233,312.2933,0.00050264,7.724e-05,0.0,0 STARLINK-4185,1 53139U 22083H   23009.56556864  .00007724  00000-0  50264-3 0  9995,2 53139  53.2177 319.6803 0002047  47.8233 312.2933 15.08857699 26838,6917.826,95.436,541.107,538.275,0.0
53139.0,STARLINK-4185,PAYLOAD,2023-01-10 07:03:39,15.08850097,0.0001684,53.2159,316.4107,47.6112,312.5022,0.0010262,0.00016086,0.0,0 STARLINK-4185,1 53139U 22083H   23010.29420733  .00016086  00000-0  10262-2 0  9996,2 53139  53.2159 316.4107 0001684  47.6112 312.5022 15.08850097 27579,6917.85,95.437,540.879,538.55,0.0
53139.0,STARLINK-4185,PAYLOAD,2023-01-10 13:25:11,15.08858045,0.0001678,53.2158,315.2211,49.1463,310.9675,0.00073759,0.00011476,0.0,0 STARLINK-4185,1 53139U 22083H   23010.55916397  .00011476  00000-0  73759-3 0  9990,2 53139  53.2158 315.2211 0001678  49.1463 310.9675 15.08858045 26981,6917.825,95.436,540.851,538.529,0.0
53139.0,STARLINK-4185,PAYLOAD,2023-01-10 19:46:44,15.08842123,0.000158,53.2155,314.0274,64.7254,295.3901,0.00032738,4.926e-05,0.0,0 STARLINK-4185,1 53139U 22083H   23010.82413010  .00004926  00000-0  32738-3 0  9998,2 53139  53.2155 314.0274 0001580  64.7254 295.3901 15.08842123 27650,6917.874,95.437,540.832,538.646,0.0
53139.0,STARLINK-4185,PAYLOAD,2023-01-11 13:15:58,15.08857241,0.0001943,53.2162,310.7588,51.2718,308.8448,0.00049033,7.528e-05,0.0,0 STARLINK-4185,1 53139U 22083H   23011.55276487  .00007528  00000-0  49033-3 0  9991,2 53139  53.2162 310.7588 0001943  51.2718 308.8448 15.08857241 27134,6917.828,95.436,541.0369999999998,538.349,0.0
53139.0,STARLINK-4185,PAYLOAD,2023-01-11 19:37:31,15.08852097,0.0001938,53.2161,309.571,51.73,308.3866,0.00034454,5.201e-05,0.0,0 STARLINK-4185,1 53139U 22083H   23011.81772484  .00005201  00000-0  34454-3 0  9995,2 53139  53.2161 309.5710 0001938  51.7300 308.3866 15.08852097 27179,6917.843000000002,95.437,541.049,538.368,0.0
53139.0,STARLINK-4185,PAYLOAD,2023-01-12 01:59:03,15.08851005,0.000173,53.2161,308.3804,48.8001,311.314,0.0002566999999999,3.801e-05,0.0,0 STARLINK-4185,1 53139U 22083H   23012.08268348  .00003801  00000-0  25670-3 0  9998,2 53139  53.2161 308.3804 0001730  48.8001 311.3140 15.08851005 27846,6917.847,95.437,540.909,538.515,0.0
53139.0,STARLINK-4185,PAYLOAD,2023-01-12 19:28:19,15.08825534,0.0001793,53.2159,305.1089,62.963,297.1545,-0.00027684,-4.69e-05,0.0,0 STARLINK-4185,1 53139U 22083H   23012.81133387 -.00004690  00000-0 -27684-3 0  9999,2 53139  53.2159 305.1089 0001793  62.9630 297.1545 15.08825534 27957,6917.925,95.438,541.03,538.549,0.0
53139.0,STARLINK-4185,PAYLOAD,2023-01-12 22:39:05,15.08827035,0.0001636999999999,53.2159,304.514,67.452,292.6645,-0.00020166,-3.495e-05,0.0,0 STARLINK-4185,1 53139U 22083H   23012.94381299 -.00003495  00000-0 -20166-3 0  9990,2 53139  53.2159 304.5140 0001637  67.4520 292.6645 15.08827035 27345,6917.92,95.438,540.9169999999998,538.653,0.0
53139.0,STARLINK-4185,PAYLOAD,2023-01-13 01:49:51,15.08826706,0.0001625,53.2156,303.9199,61.1824,298.9331,0.00027925,4.157e-05,0.0,0 STARLINK-4185,1 53139U 22083H   23013.07629446  .00004157  00000-0  27925-3 0  9998,2 53139  53.2156 303.9199 0001625  61.1824 298.9331 15.08826706 27990,6917.920999999999,95.438,540.91,538.6619999999999,0.0
53139.0,STARLINK-4185,PAYLOAD,2023-01-14 03:16:02,15.08865939,0.0001539,53.2155,299.1619,66.8723,293.2431,0.0015771,0.00024919,0.0,0 STARLINK-4185,1 53139U 22083H   23014.13613742  .00024919  00000-0  15771-2 0  9991,2 53139  53.2155 299.1619 0001539  66.8723 293.2431 15.08865939 28155,6917.801,95.436,540.731,538.601,0.0
53139.0,STARLINK-4185,PAYLOAD,2023-01-14 19:09:53,15.088568400000002,0.0001735,53.2155,296.189,65.9603,294.1571,0.0019015999999999,0.0003012,0.0,0 STARLINK-4185,1 53139U 22083H   23014.79854108  .00030120  00000-0  19016-2 0  9993,2 53139  53.2155 296.1890 0001735  65.9603 294.1571 15.08856840 28255,6917.829000000001,95.436,540.894,538.494,0.0
53139.0,STARLINK-4185,PAYLOAD,2023-01-15 11:03:45,15.08849217,0.0001952,53.2166,293.2133,81.8678,278.2536,0.00085992,0.00013428,0.0,0 STARLINK-4185,1 53139U 22083H   23015.46093805  .00013428  00000-0  85992-3 0  9996,2 53139  53.2166 293.2133 0001952  81.8678 278.2536 15.08849217 27720,6917.852,95.437,541.068,538.367,0.0
53139.0,STARLINK-4185,PAYLOAD,2023-01-15 22:11:26,15.08851025,0.0001336,53.2169,291.1358,105.2691,254.8449,0.00080517,0.00012553,0.0,0 STARLINK-4185,1 53139U 22083H   23015.92461409  .00012553  00000-0  80517-3 0  9992,2 53139  53.2169 291.1358 0001336 105.2691 254.8449 15.08851025 27791,6917.847,95.437,540.636,538.7869999999999,0.0
53139.0,STARLINK-4185,PAYLOAD,2023-01-16 10:54:30,15.0886809,8.209999999999999e-05,53.2152,288.7532,358.314,1.785,0.00096159,0.00015061,0.0,0 STARLINK-4185,1 53139U 22083H   23016.45452419  .00015061  00000-0  96159-3 0  9998,2 53139  53.2152 288.7532 0000821 358.3140   1.7850 15.08868090 27871,6917.795,95.436,540.227,539.092,0.0
53139.0,STARLINK-4185,PAYLOAD,2023-01-17 02:48:24,15.08810123,0.0001771999999999,53.215,285.7788,57.2872,302.8291,-0.00021763,-3.747e-05,0.0,0 STARLINK-4185,1 53139U 22083H   23017.11694910 -.00003747  00000-0 -21763-3 0  9995,2 53139  53.2150 285.7788 0001772  57.2872 302.8291 15.08810123 28602,6917.972,95.439,541.063,538.611,0.0
